stk.v.4.3 

BEGIN Ephemeris 

NumberOfEpemerisPoints 7200
ScenarioEpoch 	2020-10-09 16:00:00
Central Body Earth
CoordinateSystem Inertial
EphemerisTimePosVel
15 1.63567036409407e+04 1.67273298549047e+04 1.20936509368376e+04 -8.23619000522541e-01 -2.65666611484892e+00 
15 -5.38553942120880e+03 2.25778356913941e+04 -1.34383279429296e+04 -2.73684137601914e+00 2.54803445355510e+00 
15 2.05853918416626e+04 -6.71626902385524e+03 1.54256414659959e+04 -6.19057422349687e-01 2.13854384129874e+00 
15 2.37641589465354e+04 8.26427259876679e+03 -8.09128164076188e+03 -1.63903031513681e+00 -3.00782151174372e+00 
15 2.83229361113034e+02 2.08781264001987e+04 1.65970505997184e+04 -2.89247080588709e+00 -1.97288622576728e+00 
15 4.76285295354127e+03 -2.20794372268160e+04 1.40012050352972e+04 2.80033626758569e+00 -2.49250002258645e+00 
15 -2.16197672413010e+04 -1.08069208461304e+04 -1.10775671905352e+04 2.21057595719919e+00 -2.71287365812478e+00 
15 -2.99825335056058e+03 -2.43880281625856e+04 -1.00259514208261e+04 2.50067485074456e+00 -2.83921782558132e+00 
15 1.63138101890005e+04 1.63726964947835e+04 1.28513388838772e+04 -8.61181848048600e-01 -2.52887008871715e+00 
15 4.18254124968923e+03 1.52793244482206e+04 -2.12576793426559e+04 -3.80599642062989e+00 -7.59833084091452e-01 
15 1.72189381283381e+04 1.17599334074017e+04 -1.62075092031405e+04 -2.14620988402489e-01 2.14081993122534e+00 
15 -4.14300135346978e+03 1.48953932801837e+04 2.16992188820629e+04 -3.79698681076152e+00 -2.61957221219628e-01 
15 2.00640271130014e+04 -8.82090793006192e+03 -1.49602953502987e+04 2.52304844260173e+00 2.30529877668708e+00 
15 1.96277112049790e+04 -9.47361581917300e+03 -1.52178193605654e+04 -2.69459605711067e-01 -2.28285377479739e+00 
15 -1.93726364834121e+04 1.03698043527827e+04 1.47241169006376e+04 -2.65161636477673e+00 -2.35926665426810e+00 
15 2.09128716086483e+04 -1.53877537581859e+04 5.93515322902782e+03 2.02202402111599e+00 -2.92104600368831e+00 
15 -6.40098611785441e+03 -2.58994556929209e+04 -1.00575116123941e+03 2.24894212812937e+00 -3.09819905361721e+00 
15 1.35870786596896e+04 -6.72531909677436e+03 2.23977373523772e+04 1.77526736895450e+00 -8.41790213074086e-02 
15 -9.28285026775454e+03 -2.45429232247890e+04 5.23580358358257e+03 2.28175260421542e+00 3.09056883070713e+00 
15 7.82253675318616e+03 -2.24656645966362e+04 1.22570663792361e+04 2.77518210310047e+00 -2.63705030055450e+00 
15 3.90400408199010e+03 -2.19004496179940e+04 -1.41947540341628e+04 2.45379778256767e+00 -2.31797005143912e+00 
15 -1.29536396143899e+04 -1.28495741101845e+04 1.89922501584191e+04 3.40751147027994e+00 1.60853175428320e+00 
15 -6.03277524004656e+03 -1.57218463691132e+04 2.12007191752072e+04 2.85955690840251e+00 -9.33658657272819e-01 
15 -1.36819540957055e+04 1.18630289471693e+04 -1.89809696642734e+04 -3.35301505338284e+00 1.59829106405768e+00 
15 -7.36933436445099e+03 -1.49753617347226e+04 -2.07981485483017e+04 2.65535459342984e+00 9.19552980227243e-01 
15 1.16334195616230e+04 2.37754073796648e+04 -8.88480957910011e+02 -1.98916143678083e+00 -3.21804677669059e+00 
15 -1.33371614157368e+01 1.60179205489391e+04 2.08931172089450e+04 -3.84761164065603e+00 3.87316498784829e-01 
15 -4.57117318084402e+01 -1.46739384723688e+04 2.21060876665010e+04 3.87504815481962e+00 9.15421687203448e-02 
15 8.73798984325934e+03 1.37932719984874e+04 2.13555175718425e+04 -2.58689573315252e+00 -6.73403940596608e-01 
15 1.69409369931715e+04 1.44202098639024e+04 -1.47954012177880e+04 -5.68728657903914e-01 2.30675701406440e+00 
15 1.62570880126485e+04 1.70483463719146e+04 1.17785019741864e+04 -8.65583925993585e-01 -2.68738297802132e+00 
15 -5.71667454216985e+03 2.26782706642540e+04 -1.31272324381306e+04 -2.72292949584122e+00 2.58132300895205e+00 
15 2.05073383402523e+04 -6.33241351567348e+03 1.56818538843842e+04 -6.71777823440314e-01 2.09863407935800e+00 
15 2.35633416797398e+04 8.48547172863758e+03 -8.45173410249107e+03 -1.70046911080168e+00 -2.98634601865124e+00 
15 -6.50156108898682e+01 2.10698671696082e+04 1.63570240824436e+04 -2.89274671536136e+00 -2.01455202643871e+00 
15 5.09872221615309e+03 -2.21923527482702e+04 1.36994583970152e+04 2.78774691284866e+00 -2.52786285350340e+00 
15 -2.13507651783800e+04 -1.10038467748084e+04 -1.14019318669419e+04 2.26534272938402e+00 -2.68422310886049e+00 
15 -2.69868454265557e+03 -2.42829460445645e+04 -1.03640271183774e+04 2.50794096981014e+00 -2.81321161809241e+00 
15 1.62089211218779e+04 1.67065497657415e+04 1.25486727130151e+04 -9.02860963108841e-01 -2.56142116241335e+00 
15 3.72407751831224e+03 1.52792925502856e+04 -2.13457884215889e+04 -3.81616855569302e+00 -7.05022417574011e-01 
15 1.71908604686427e+04 1.21433883987394e+04 -1.59511177492452e+04 -2.58786042105062e-01 2.18209559625392e+00 
15 -4.60012452271535e+03 1.48142342213855e+04 2.16643145291690e+04 -3.78588021334385e+00 -3.17043006606447e-01 
15 2.03636960025163e+04 -8.59979854163300e+03 -1.46813760880589e+04 2.47130536035309e+00 2.34323688655418e+00 
15 1.95923396602464e+04 -9.09807461229687e+03 -1.54896960345805e+04 -3.19453216408994e-01 -2.24371105046482e+00 
15 -1.96878353933556e+04 1.01771357624711e+04 1.44387125508388e+04 -2.60113215502209e+00 -2.39695853582799e+00 
15 2.11506328458163e+04 -1.52046246301517e+04 5.58626901896605e+03 1.96917835476870e+00 -2.93552078808864e+00 
15 -6.12897150090620e+03 -2.59489169683074e+04 -1.37899079093449e+03 2.26475844194659e+00 -3.09518885045222e+00 
15 1.38016907988383e+04 -6.31390036389569e+03 2.23841034382275e+04 1.74159037098405e+00 -1.39242376964552e-01 
15 -9.00688848709253e+03 -2.45593867609947e+04 5.60690257153463e+03 2.30465620759808e+00 3.07699083678839e+00 
15 8.16153833568202e+03 -2.25071867981201e+04 1.19318591288812e+04 2.75478923850902e+00 -2.66791089241287e+00 
15 4.19792872912836e+03 -2.16627675414837e+04 -1.44707667385760e+04 2.44324894585320e+00 -2.28064713984039e+00 
15 -1.25499684890556e+04 -1.29692295459692e+04 1.91789976064284e+04 3.44031902511783e+00 1.55942866179371e+00 
15 -5.68090082682228e+03 -1.60043805584568e+04 2.10829210812875e+04 2.87399675712307e+00 -9.85783212681035e-01 
15 -1.40823293191367e+04 1.17100255354149e+04 -1.87860639811297e+04 -3.31622173047257e+00 1.64834011844272e+00 
15 -7.04987158209930e+03 -1.52900864071287e+04 -2.06847621099379e+04 2.67351982296912e+00 9.71812826529863e-01 
15 1.13951304131591e+04 2.38768951304597e+04 -1.27099328843017e+03 -2.01853711205871e+00 -3.21529214064764e+00 
15 -4.76181913805289e+02 1.59473376919132e+04 2.09364062311047e+04 -3.84696820806974e+00 3.32339128472969e-01 
15 4.19315509956172e+02 -1.46573759504342e+04 2.21136762594756e+04 3.87456978083643e+00 3.49212094359108e-02 
15 8.42356576661873e+03 1.41227192136736e+04 2.12708011571909e+04 -2.60820288780747e+00 -7.26327149470419e-01 
15 1.68697222449975e+04 1.47837921146505e+04 -1.45147616004952e+04 -6.11371534996158e-01 2.34372374729532e+00 
15 1.61525316936692e+04 1.73642097945098e+04 1.14597573793501e+04 -9.07282379492999e-01 -2.71728150064539e+00 
15 -6.04608985594334e+03 2.27718166873256e+04 -1.28121290794050e+04 -2.70818770943778e+00 2.61383171717721e+00 
15 2.04229299145355e+04 -5.94663631707585e+03 1.59331710466415e+04 -7.24311321088429e-01 2.05805654691608e+00 
15 2.33551501701342e+04 8.70404074073147e+03 -8.80957905167384e+03 -1.76136066755708e+00 -2.96394404839119e+00 
15 -4.13269086522130e+02 2.12552091868968e+04 1.61119984680939e+04 -2.89214202290518e+00 -2.05560300392757e+00 
15 5.43302000114863e+03 -2.22984551466261e+04 1.33935133564758e+04 2.77430092828394e+00 -2.56245270654744e+00 
15 -2.10752201145383e+04 -1.11974028949076e+04 -1.17228056683380e+04 2.31941271574520e+00 -2.65475168961209e+00 
15 -2.39827196567019e+03 -2.41704474750402e+04 -1.06989634472157e+04 2.51444128610347e+00 -2.78634934520799e+00 
15 1.60990972163625e+04 1.70352949308081e+04 1.22421969791409e+04 -9.44267712986467e-01 -2.59319374449447e+00 
15 3.26443179648116e+03 1.52745317646103e+04 -2.14272967068958e+04 -3.82515763067702e+00 -6.50005065280153e-01 
15 1.71575498244987e+04 1.25231307203214e+04 -1.56898799253126e+04 -3.02874736149541e-01 2.22270912383454e+00 
15 -5.05584591170918e+03 1.47285365882105e+04 2.16227742815454e+04 -3.77361566019258e+00 -3.72024268200002e-01 
15 2.06571093082837e+04 -8.37604816964979e+03 -1.43979479693932e+04 2.41880282925295e+00 2.38045551416662e+00 
15 1.95509684945957e+04 -8.71974790898090e+03 -1.57568289586559e+04 -3.69350328692011e-01 -2.20388019532058e+00 
15 -1.99969324105444e+04 9.98130704201866e+03 1.41488245967322e+04 -2.54984359686969e+00 -2.43390505057236e+00 
15 2.13821519139267e+04 -1.50168738518266e+04 5.23557995124041e+03 1.91576558913892e+00 -2.94911095853471e+00 
15 -5.85507034304815e+03 -2.59904864469475e+04 -1.75184048652884e+03 2.27988542363096e+00 -3.09123693470325e+00 
15 1.40121118570853e+04 -5.90068307978460e+03 2.23637565600908e+04 1.70739163147226e+00 -1.94262540355727e-01 
15 -8.72828008063676e+03 -2.45684458422119e+04 5.97622140208911e+03 2.32687000257061e+00 3.06248259719592e+00 
15 8.49790034133942e+03 -2.25416561837103e+04 1.16030009186475e+04 2.73351418454068e+00 -2.69796604254875e+00 
15 4.49053170299057e+03 -2.14183219836273e+04 -1.47422473466708e+04 2.43193536190554e+00 -2.24260775160479e+00 
15 -1.21425188990814e+04 -1.30849432186435e+04 1.93599152677157e+04 3.47208615971938e+00 1.50984793291425e+00 
15 -5.32728149835688e+03 -1.62820911320500e+04 2.09587332660201e+04 2.88757187788789e+00 -1.03762840888049e+00 
15 -1.44782574912825e+04 1.15532832311740e+04 -1.85851643624565e+04 -3.27838240844699e+00 1.69785252769217e+00 
15 -6.72820731947786e+03 -1.56002624745066e+04 -2.05651012531528e+04 2.69087341225843e+00 1.02376724586409e+00 
15 1.11533450508074e+04 2.39711558681192e+04 -1.65318294051077e+03 -2.04729434598243e+00 -3.21156282091206e+00 
15 -9.38821506056278e+02 1.58717201372401e+04 2.09730694369159e+04 -3.84510773996678e+00 2.77237303367021e-01 
15 8.84219643740062e+02 -1.46363088036051e+04 2.21144690992999e+04 3.87290074503443e+00 -2.17083196891561e-02 
END Ephemeris